<?xml version="1.0" encoding="UTF-8"?>
<gpx version="1.1" creator="Junto" xmlns="http://www.topografix.com/GPX/1/1">
  <trk>
    <name>Croix d&apos;Aquila</name>
    <trkseg>
      <trkpt lat="44.893835321702056" lon="6.565492858475466"></trkpt>
      <trkpt lat="44.89358680794564" lon="6.565140174592813"></trkpt>
      <trkpt lat="44.89353011660211" lon="6.564900910735162"></trkpt>
      <trkpt lat="44.89385112416883" lon="6.563427506255437"></trkpt>
      <trkpt lat="44.893989658124724" lon="6.561595255677133"></trkpt>
      <trkpt lat="44.894012767408725" lon="6.561648123294077"></trkpt>
      <trkpt lat="44.89407382582755" lon="6.561187022359405"></trkpt>
      <trkpt lat="44.894574510670736" lon="6.560481873942905"></trkpt>
      <trkpt lat="44.89475530412443" lon="6.559572470145042"></trkpt>
      <trkpt lat="44.89481339015984" lon="6.558327254294625"></trkpt>
      <trkpt lat="44.894933675921294" lon="6.558063334574058"></trkpt>
      <trkpt lat="44.89483553320065" lon="6.55805155038027"></trkpt>
      <trkpt lat="44.89484246930414" lon="6.557129684000557"></trkpt>
      <trkpt lat="44.89504387025764" lon="6.556447970715226"></trkpt>
      <trkpt lat="44.895010137617845" lon="6.556262527430249"></trkpt>
      <trkpt lat="44.89492914169992" lon="6.556111735846201"></trkpt>
      <trkpt lat="44.89462396089962" lon="6.556140991865135"></trkpt>
      <trkpt lat="44.89434336460482" lon="6.556584287739696"></trkpt>
      <trkpt lat="44.89406437692722" lon="6.555999897145057"></trkpt>
      <trkpt lat="44.894050542787966" lon="6.55559759407663"></trkpt>
      <trkpt lat="44.89441637935539" lon="6.552852833989135"></trkpt>
      <trkpt lat="44.894289669527325" lon="6.5522736716491465"></trkpt>
      <trkpt lat="44.89385246125519" lon="6.551368067256476"></trkpt>
      <trkpt lat="44.8936693415028" lon="6.551468635594631"></trkpt>
      <trkpt lat="44.893140452716096" lon="6.550846115464424"></trkpt>
      <trkpt lat="44.89183813194202" lon="6.550359709279263"></trkpt>
      <trkpt lat="44.89165062668607" lon="6.550800692174903"></trkpt>
      <trkpt lat="44.89136237724918" lon="6.550622541502861"></trkpt>
      <trkpt lat="44.89111363935274" lon="6.55061825058948"></trkpt>
      <trkpt lat="44.890260979660184" lon="6.551036520129514"></trkpt>
      <trkpt lat="44.88990397815391" lon="6.551073186654804"></trkpt>
      <trkpt lat="44.88995862527665" lon="6.551362466190824"></trkpt>
      <trkpt lat="44.88940257579412" lon="6.55197127638732"></trkpt>
      <trkpt lat="44.889313595309915" lon="6.553741679816994"></trkpt>
      <trkpt lat="44.888844401219046" lon="6.5545110361314585"></trkpt>
      <trkpt lat="44.888590427406825" lon="6.555182438760113"></trkpt>
      <trkpt lat="44.88823470639096" lon="6.555641882204611"></trkpt>
      <trkpt lat="44.88749784788109" lon="6.556235003566684"></trkpt>
      <trkpt lat="44.886963578496164" lon="6.557288031387799"></trkpt>
      <trkpt lat="44.88620061048951" lon="6.557828933422968"></trkpt>
      <trkpt lat="44.886213540791346" lon="6.557828731110021"></trkpt>
      <trkpt lat="44.88595548575469" lon="6.558176797477699"></trkpt>
      <trkpt lat="44.885875822967904" lon="6.558162330598833"></trkpt>
      <trkpt lat="44.88566587131095" lon="6.557922774423417"></trkpt>
      <trkpt lat="44.8853893389186" lon="6.558006563697944"></trkpt>
      <trkpt lat="44.88532870665168" lon="6.558094202411297"></trkpt>
      <trkpt lat="44.88497409298566" lon="6.5595654129729155"></trkpt>
      <trkpt lat="44.884809178751055" lon="6.559799791138488"></trkpt>
      <trkpt lat="44.884437496448186" lon="6.560058248422422"></trkpt>
      <trkpt lat="44.8840070744686" lon="6.560616612261185"></trkpt>
      <trkpt lat="44.88376079579652" lon="6.560793246143504"></trkpt>
      <trkpt lat="44.88365355779868" lon="6.560980937661441"></trkpt>
    </trkseg>
  </trk>
</gpx>
